SAZW40 ZWZK 191300
METAR ZWZK 191300Z AUTO 15308G12KT 13/12 Q1019=
